{
  "version": 0.6,
  "generator": "Overpass API 0.7.62.4 2390de5a",
  "osm3s": {
    "timestamp_osm_base": "2024-12-30T23:47:15Z",
    "timestamp_areas_base": "2024-12-30T18:51:25Z",
    "copyright": "The data included in this document is from www.openstreetmap.org. The data is made available under ODbL."
  },
  "elements": [

{
  "type": "node",
  "id": 8091423,
  "lat": 48.2489807,
  "lon": 16.3655452,
  "tags": {
    "ele": "169",
    "name": "Wien Heiligenstadt",
    "operator": "ÖBB-Infrastruktur AG",
    "platforms": "5",
    "public_transport": "station",
    "railway": "station",
    "railway:position": "2.7 / 9.6",
    "railway:position:exact": "2.678 / 9.584",
    "railway:ref": "Ht",
    "train": "yes",
    "uic_name": "Wien Heiligenstadt",
    "uic_ref": "8100269",
    "wheelchair": "yes",
    "wikidata": "Q801604",
    "wikimedia_commons": "Category:Bahnhof Wien Heiligenstadt",
    "wikipedia": "de:Bahnhof Wien Heiligenstadt"
  }
},
{
  "type": "node",
  "id": 60093107,
  "lat": 48.1965445,
  "lon": 16.3362817,
  "tags": {
    "departures_board": "realtime",
    "heritage": "2",
    "heritage:operator": "bda",
    "name": "Wien Westbahnhof",
    "operator": "ÖBB-Infrastruktur AG",
    "public_transport": "station",
    "railway": "station",
    "railway:position": "0.0",
    "railway:position:exact": "0.000",
    "railway:ref": "Ws",
    "railway:ref:DB": "XAWW",
    "ref:at:bda": "40557",
    "short_name": "Wien Westbf",
    "toilets:wheelchair": "yes",
    "uic_name": "Wien Westbahnhof",
    "uic_ref": "8100003",
    "wheelchair": "yes",
    "wikidata": "Q698145",
    "wikipedia": "de:Wien Westbahnhof"
  }
},
{
  "type": "node",
  "id": 62823673,
  "lat": 48.1202259,
  "lon": 16.5642737,
  "tags": {
    "name": "Flughafen Wien",
    "name:en": "Vienna Airport",
    "network": "VOR",
    "network:wikidata": "Q2516485",
    "operator": "ÖBB-Infrastruktur AG",
    "platforms": "3",
    "public_transport": "station",
    "railway": "station",
    "railway:position": "19.3",
    "railway:position:exact": "19.300",
    "railway:ref": "Fws",
    "railway:ref:DB": "XAWIF",
    "train": "yes",
    "uic_name": "Flughafen Wien",
    "uic_ref": "8100353",
    "wheelchair": "yes"
  }
},
{
  "type": "node",
  "id": 66432827,
  "lat": 48.1745297,
  "lon": 16.3339652,
  "tags": {
    "ele": "210",
    "name": "Wien Meidling",
    "network": "VOR",
    "network:wikidata": "Q2516485",
    "operator": "ÖBB-Infrastruktur AG",
    "platforms": "8",
    "public_transport": "station",
    "railway": "station",
    "railway:position": "3.4 / 7.7",
    "railway:position:exact": "3.437 / 7.726",
    "railway:ref": "Mi",
    "railway:ref:DB": "XAWG",
    "station": "train",
    "train": "yes",
    "uic_ref": "8100514",
    "wheelchair": "yes",
    "wikidata": "Q514441",
    "wikipedia": "de:Bahnhof Wien Meidling"
  }
},
{
  "type": "node",
  "id": 302097253,
  "lat": 47.8130618,
  "lon": 13.0458530,
  "tags": {
    "addr:city": "Salzburg",
    "addr:housenumber": "1",
    "addr:postcode": "5020",
    "addr:street": "Südtiroler Platz",
    "name": "Salzburg Hauptbahnhof",
    "operator": "ÖBB-Infrastruktur AG",
    "public_transport": "station",
    "railway": "station",
    "railway:name:DB": "Salzburg Hbf",
    "railway:ref": "Sb",
    "railway:ref:DB": "XASB",
    "short_name": "Salzburg Hbf",
    "toilets": "yes",
    "toilets:access": "yes",
    "toilets:wheelchair": "yes",
    "uic_name": "Salzburg Hbf",
    "uic_ref": "8100002",
    "wheelchair": "yes",
    "wikidata": "Q694694",
    "wikipedia": "de:Salzburg Hauptbahnhof"
  }
},
{
  "type": "node",
  "id": 321330275,
  "lat": 48.1973277,
  "lon": 16.2612741,
  "tags": {
    "addr:city": "Wien",
    "addr:country": "AT",
    "addr:housenumber": "5",
    "addr:postcode": "1140",
    "addr:street": "Keißlergasse",
    "name": "Wien Hütteldorf",
    "operator": "ÖBB-Infrastruktur AG",
    "public_transport": "station",
    "railway": "station",
    "railway:position": "5.9 / 2.1",
    "railway:position:exact": "5.846 / 2.124",
    "railway:ref": "Hf",
    "railway:ref:DB": "XAWH",
    "uic_ref": "8100447",
    "wheelchair": "limited",
    "wikidata": "Q801605",
    "wikipedia": "de:Bahnhof Wien Hütteldorf"
  }
},
{
  "type": "node",
  "id": 619805688,
  "lat": 47.8127808,
  "lon": 13.0445107,
  "tags": {
    "alt_name": "Salzburg Hauptbahnhof (Lokalbahn)",
    "layer": "-1",
    "level": "-3",
    "name": "Salzburg Hauptbahnhof (S-Bahn)",
    "network": "Salzburger Verkehrsverbund",
    "network:short": "SVV",
    "network:wikidata": "Q1254319",
    "operator": "Salzburg AG Verkehr",
    "public_transport": "station",
    "railway": "station",
    "railway:ref": "SALB",
    "short_name": "Salzburg Hbf (S-Bahn)",
    "train": "yes",
    "uic_name": "Salzburg Hbf (Lokalbahn)",
    "uic_ref": "8100414",
    "wheelchair": "yes"
  }
},
{
  "type": "node",
  "id": 1775537146,
  "lat": 48.1926935,
  "lon": 16.3048931,
  "tags": {
    "addr:city": "Wien",
    "addr:country": "AT",
    "addr:postcode": "1140",
    "internet_access": "no",
    "name": "Wien Penzing",
    "operator": "ÖBB-Infrastruktur AG",
    "public_transport": "station",
    "railway": "station",
    "railway:position": "2.6 / 0.0",
    "railway:position:exact": "2.553 / 0.000",
    "railway:ref": "Pz",
    "railway:ref:DB": "XAWP",
    "train": "yes",
    "uic_name": "Wien Penzing",
    "uic_ref": "8100450",
    "wheelchair": "yes",
    "wikidata": "Q801609",
    "wikipedia": "de:Bahnhof Wien Penzing"
  }
},
{
  "type": "node",
  "id": 1839787470,
  "lat": 48.1850101,
  "lon": 16.3778549,
  "tags": {
    "alt_name:ko": "비엔나 중앙역",
    "internet_access": "wlan",
    "internet_access:fee": "no",
    "internet_access:ssid": "OEBB-station",
    "level": "1",
    "name": "Wien Hauptbahnhof",
    "name:de": "Wien Hauptbahnhof",
    "name:en": "Vienna Central Station",
    "name:es": "Estación Central de Viena",
    "name:ko": "빈 중앙역",
    "name:ml": "വിയന്ന സെൻട്രൽ സ്റ്റേഷൻ",
    "network": "VOR",
    "network:wikidata": "Q2516485",
    "operator": "ÖBB-Infrastruktur AG",
    "platforms": "10",
    "public_transport": "station",
    "railway": "station",
    "railway:position": "0.000 / 99.947",
    "railway:position:exact": "0.000 / 99.947",
    "railway:ref": "Wbf",
    "railway:ref:DB": "XAWIE",
    "short_name": "Wien Hbf",
    "toilets:wheelchair": "yes",
    "train": "yes",
    "uic_name": "Wien Hbf",
    "uic_ref": "8103000",
    "wheelchair": "yes",
    "wikidata": "Q697300",
    "wikipedia": "de:Wien Hauptbahnhof"
  }
},
{
  "type": "node",
  "id": 2498640507,
  "lat": 47.4662527,
  "lon": 9.5407273,
  "tags": {
    "ele": "616",
    "name": "Wienacht-Tobel",
    "network": "Ostwind",
    "operator": "AB-rhb",
    "railway": "station",
    "uic_name": "Wienacht-Tobel",
    "uic_ref": "8506353",
    "wikidata": "Q33506632"
  }
},
{
  "type": "node",
  "id": 2647508887,
  "lat": 47.7885764,
  "lon": 13.0787463,
  "tags": {
    "name": "Salzburg Aigen",
    "operator": "ÖBB-Infrastruktur AG",
    "railway": "station",
    "railway:ref": "Aj",
    "uic_name": "Salzburg Aigen",
    "uic_ref": "8101470",
    "wheelchair": "limited",
    "wikidata": "Q15785197"
  }
},
{
  "type": "node",
  "id": 2874018201,
  "lat": 48.1396047,
  "lon": 16.3695515,
  "tags": {
    "name": "Wien Blumental",
    "network": "VOR",
    "network:wikidata": "Q2516485",
    "operator": "ÖBB-Infrastruktur AG",
    "public_transport": "station",
    "railway": "station",
    "railway:position": "6.3",
    "railway:position:exact": "6.296",
    "railway:ref": "Id",
    "train": "yes",
    "uic_ref": "8101003",
    "wikidata": "Q27957790"
  }
},
{
  "type": "node",
  "id": 2874038819,
  "lat": 47.8110703,
  "lon": 16.2336549,
  "tags": {
    "departures_board": "realtime",
    "departures_board:speech_output": "no",
    "name": "Wiener Neustadt Hauptbahnhof",
    "operator": "ÖBB-Infrastruktur AG",
    "public_transport": "station",
    "railway": "station",
    "railway:position": "48.1 / 50.9",
    "railway:position:exact": "48.118 / 50.915",
    "railway:ref": "Nb",
    "railway:ref:DB": "XAWNS",
    "short_name": "Wr. Neustadt Hbf",
    "uic_name": "Wiener Neustadt Hbf",
    "uic_ref": "8100516",
    "wheelchair": "yes",
    "wheelchair:description": "rollstuhlgerechtes WC (Schlüssel bei Security- oder Reinigungspersonal erfragen); bei nicht rollstuhlgerechten Zügen kann man vorher bei der Fahrdienstleitung anrufen, dann wird man von der Security in den Zug gebracht",
    "wikidata": "Q663815",
    "wikipedia": "de:Wiener Neustadt Hauptbahnhof"
  }
},
{
  "type": "node",
  "id": 2919957304,
  "lat": 48.1779748,
  "lon": 16.3910866,
  "tags": {
    "name": "Wien Hauptbahnhof Autoreisezug",
    "operator": "ÖBB-Infrastruktur AG",
    "public_transport": "station",
    "railway": "station",
    "railway:position": "101.1",
    "railway:position:exact": "101.050",
    "railway:ref": "Of",
    "railway:ref:DB": "XAWIO",
    "short_name": "Wien Hbf Autoreisezug",
    "start_date": "2014-06-14",
    "wheelchair": "yes",
    "wikidata": "Q111267113",
    "wikimedia_commons": "Category:Wien Hauptbahnhof (platform 13–16)",
    "wikipedia": "de:Wien Hauptbahnhof Autoreisezug"
  }
},
{
  "type": "node",
  "id": 3309570449,
  "lat": 48.2056315,
  "lon": 16.3842468,
  "tags": {
    "name": "Wien Mitte",
    "network": "VOR",
    "network:wikidata": "Q2516485",
    "operator": "ÖBB-Infrastruktur AG",
    "public_transport": "station",
    "railway": "station",
    "railway:position": "4.8",
    "railway:position:exact": "4.845",
    "railway:ref": "Hz",
    "railway:ref:DB": "XAWMI",
    "train": "yes",
    "uic_name": "Wien Mitte",
    "uic_ref": "8100449",
    "wheelchair": "yes",
    "wheelchair:description": "Achtung: Ausgang Stadtpark nicht rollstuhlgerecht.",
    "wikidata": "Q677576",
    "wikipedia": "de:Bahnhof Wien Mitte (Landstraße)"
  }
},
{
  "type": "node",
  "id": 3309570450,
  "lat": 48.2191234,
  "lon": 16.3921133,
  "tags": {
    "level": "1",
    "name": "Wien Praterstern",
    "network": "VOR",
    "network:wikidata": "Q2516485",
    "operator": "ÖBB-Infrastruktur AG",
    "public_transport": "station",
    "railway": "station",
    "railway:position": "0.1",
    "railway:position:exact": "0.065",
    "railway:ref": "Nw",
    "railway:ref:DB": "XAWNP",
    "train": "yes",
    "uic_name": "Wien Praterstern",
    "uic_ref": "8100349",
    "wheelchair": "yes",
    "wikidata": "Q680165",
    "wikipedia": "de:Bahnhof Wien Praterstern"
  }
},
{
  "type": "node",
  "id": 3310997803,
  "lat": 48.2564008,
  "lon": 16.4000183,
  "tags": {
    "check_date:wheelchair": "2024-06-14",
    "name": "Wien Floridsdorf",
    "operator": "ÖBB-Infrastruktur AG",
    "public_transport": "station",
    "railway": "station",
    "railway:position": "4.2 / 4.8",
    "railway:position:exact": "4.150 / 4.760",
    "railway:ref": "F",
    "ref": "334",
    "toilets:wheelchair": "yes",
    "uic_name": "Wien Floridsdorf",
    "uic_ref": "8100236",
    "wheelchair": "yes",
    "wikidata": "Q801603",
    "wikipedia": "de:Bahnhof Wien Floridsdorf"
  }
},
{
  "type": "node",
  "id": 3313275951,
  "lat": 48.2772033,
  "lon": 16.4478315,
  "tags": {
    "name": "Wien Leopoldau",
    "network": "VOR",
    "network:wikidata": "Q2516485",
    "operator": "ÖBB-Infrastruktur AG",
    "public_transport": "station",
    "railway": "station",
    "railway:position": "9.2",
    "railway:position:exact": "9.201",
    "railway:ref": "Lp",
    "train": "yes",
    "uic_name": "Wien Leopoldau",
    "uic_ref": "8101170",
    "wheelchair": "yes",
    "wikidata": "Q683314",
    "wikipedia": "de:Bahnhof Wien Leopoldau"
  }
},
{
  "type": "node",
  "id": 3313275953,
  "lat": 48.2855686,
  "lon": 16.4855158,
  "tags": {
    "name": "Wien Süßenbrunn",
    "network": "VOR",
    "network:wikidata": "Q2516485",
    "operator": "ÖBB-Infrastruktur AG",
    "platforms": "4",
    "public_transport": "station",
    "railway": "station",
    "railway:position": "12.0 / 1.5",
    "railway:position:exact": "12.000 / 1.464",
    "railway:ref": "Sue",
    "train": "yes",
    "uic_name": "Wien Süßenbrunn",
    "uic_ref": "8101619"
  }
},
{
  "type": "node",
  "id": 3324394753,
  "lat": 48.1348604,
  "lon": 16.2842558,
  "tags": {
    "name": "Wien Liesing",
    "network": "VOR",
    "network:wikidata": "Q2516485",
    "operator": "ÖBB-Infrastruktur AG",
    "public_transport": "station",
    "railway": "station",
    "railway:position": "9.6 / 0.0",
    "railway:position:exact": "9.611 / 0.000",
    "railway:ref": "Lg",
    "train": "yes",
    "uic_name": "Wien Liesing",
    "uic_ref": "8101150",
    "wheelchair": "limited",
    "wikidata": "Q801607",
    "wikipedia": "de:Bahnhof Wien Liesing"
  }
},
{
  "type": "node",
  "id": 3324474927,
  "lat": 48.2421434,
  "lon": 16.3859815,
  "tags": {
    "internet_access": "wlan",
    "internet_access:fee": "no",
    "name": "Wien Handelskai",
    "operator": "ÖBB-Infrastruktur AG",
    "platforms": "2",
    "public_transport": "station",
    "railway": "station",
    "railway:position": "2.3",
    "railway:position:exact": "2.280",
    "railway:ref": "Hak",
    "uic_name": "Wien Handelskai (Bahnsteige 11-12)",
    "uic_ref": "8101947",
    "wheelchair": "yes"
  }
},
{
  "type": "node",
  "id": 3329319162,
  "lat": 48.1541076,
  "lon": 16.4261034,
  "tags": {
    "name": "Wien Zentralfriedhof",
    "network": "VOR",
    "network:wikidata": "Q2516485",
    "operator": "ÖBB-Infrastruktur AG",
    "public_transport": "station",
    "railway": "station",
    "railway:position": "6.7 / 0.0",
    "railway:position:exact": "6.733 / 0.033",
    "railway:ref": "Cf",
    "train": "yes",
    "uic_name": "Wien Zentralfriedhof (S-Bahn)",
    "uic_ref": "8101820",
    "wheelchair": "yes",
    "wikidata": "Q15917028",
    "wikipedia": "de:Bahnhof Wien Zentralfriedhof"
  }
},
{
  "type": "node",
  "id": 3329326134,
  "lat": 48.1461718,
  "lon": 16.4654282,
  "tags": {
    "name": "Wien Kaiserebersdorf",
    "network": "VOR",
    "network:wikidata": "Q2516485",
    "note": "old position of line 191 01 was '11.037'",
    "old_name": "Klein Schwechat",
    "operator": "ÖBB-Infrastruktur AG",
    "public_transport": "station",
    "railway": "station",
    "railway:position": "18.7 / 11.0",
    "railway:position:exact": "18.738 / 10.951",
    "railway:ref": "Klf",
    "train": "yes",
    "uic_name": "Wien Kaiserebersdorf",
    "uic_ref": "8100374",
    "wheelchair": "yes",
    "wikidata": "Q15112101",
    "wikipedia": "de:Haltestelle Wien Kaiserebersdorf"
  }
},
{
  "type": "node",
  "id": 3488369063,
  "lat": 48.2602280,
  "lon": 16.3677782,
  "tags": {
    "alt_name": "Wien Nussdorf",
    "ele": "164",
    "name": "Wien Nußdorf",
    "network": "VOR",
    "network:wikidata": "Q2516485",
    "operator": "ÖBB-Infrastruktur AG",
    "platforms": "3",
    "public_transport": "station",
    "railway": "station",
    "railway:position": "4.0",
    "railway:position:exact": "3.952",
    "railway:ref": "Nf",
    "train": "yes",
    "uic_name": "Wien Nußdorf",
    "uic_ref": "8101290",
    "wheelchair": "no",
    "wikidata": "Q18762414",
    "wikimedia_commons": "Category:Bahnhof Wien Nußdorf",
    "wikipedia": "de:Bahnhof Wien Nußdorf"
  }
},
{
  "type": "node",
  "id": 3488513518,
  "lat": 48.2266888,
  "lon": 16.3611137,
  "tags": {
    "alt_name": "Wien FJB",
    "ele": "164",
    "name": "Wien Franz-Josefs-Bahnhof",
    "operator": "ÖBB-Infrastruktur AG",
    "platforms": "5",
    "public_transport": "station",
    "railway": "station",
    "railway:position": "0.0",
    "railway:position:exact": "0.000",
    "railway:ref": "Wf",
    "railway:ref:DB": "XAWF",
    "short_name": "Wien FJBf",
    "uic_name": "Wien Franz-Josefs-Bahnhof",
    "uic_ref": "8100446",
    "wheelchair": "yes",
    "wikidata": "Q686592",
    "wikipedia": "de:Wien Franz-Josefs-Bahnhof"
  }
},
{
  "type": "node",
  "id": 10237921409,
  "lat": 47.8564661,
  "lon": 15.3072247,
  "tags": {
    "name": "Wienerbruck-Josefsberg",
    "public_transport": "station",
    "railway": "station",
    "train": "yes",
    "uic_ref": "8100354",
    "wheelchair": "yes"
  }
}

  ]
}
